{
  "type": "FeatureCollection",
  "features": [
    {
      "type": "Feature",
      "properties": {
        "norad_id": 27954,
        "name": "GALAXY 13 (HORIZONS-1)",
        "group": "intelsat",
        "lat": -0.3234177714605861,
        "lon": 64.94672456335168,
        "alt_km": 35794.918090709805,
        "timestamp": "2025-12-11T08:58:26.782077+00:00",
        "meta_object_name": "GALAXY 13 (HORIZONS-1)",
        "meta_object_id": "2003-044A",
        "meta_epoch": "2025-12-11T04:14:15.566784",
        "meta_mean_motion": 1.00270843,
        "meta_eccentricity": 0.0002035,
        "meta_inclination": 0.9315,
        "meta_ra_of_asc_node": 86.49,
        "meta_arg_of_pericenter": 165.3304,
        "meta_mean_anomaly": 101.8836,
        "meta_ephemeris_type": 0,
        "meta_classification_type": "U",
        "meta_norad_cat_id": 27954,
        "meta_element_set_no": 999,
        "meta_rev_at_epoch": 4468,
        "meta_bstar": 0,
        "meta_mean_motion_dot": 1.39e-06,
        "meta_mean_motion_ddot": 0,
        "tle_line1": "1 27954U 03044A   25345.17656906  .00000139  00000+0  00000+0 0  9998",
        "tle_line2": "2 27954   0.9315  86.4900 0002035 165.3304 101.8836  1.00270843 44680"
      },
      "geometry": {
        "type": "Point",
        "coordinates": [
          64.94672456335168,
          -0.3234177714605861
        ]
      }
    },
    {
      "type": "Feature",
      "properties": {
        "norad_id": 28358,
        "name": "INTELSAT 10-02",
        "group": "intelsat",
        "lat": -0.0019221961276667343,
        "lon": -146.05087982364148,
        "alt_km": 35788.41096480338,
        "timestamp": "2025-12-11T08:58:26.782116+00:00",
        "meta_object_name": "INTELSAT 10-02",
        "meta_object_id": "2004-022A",
        "meta_epoch": "2025-12-11T03:14:06.327744",
        "meta_mean_motion": 1.00278861,
        "meta_eccentricity": 0.0002196,
        "meta_inclination": 0.0236,
        "meta_ra_of_asc_node": 64.8116,
        "meta_arg_of_pericenter": 267.1758,
        "meta_mean_anomaly": 155.6608,
        "meta_ephemeris_type": 0,
        "meta_classification_type": "U",
        "meta_norad_cat_id": 28358,
        "meta_element_set_no": 999,
        "meta_rev_at_epoch": 7867,
        "meta_bstar": 0,
        "meta_mean_motion_dot": -4e-08,
        "meta_mean_motion_ddot": 0,
        "tle_line1": "1 28358U 04022A   25345.13479546 -.00000004  00000+0  00000+0 0  9995",
        "tle_line2": "2 28358   0.0236  64.8116 0002196 267.1758 155.6608  1.00278861 78671"
      },
      "geometry": {
        "type": "Point",
        "coordinates": [
          -146.05087982364148,
          -0.0019221961276667343
        ]
      }
    },
    {
      "type": "Feature",
      "properties": {
        "norad_id": 28626,
        "name": "XM-3 (RHYTHM)",
        "group": "intelsat",
        "lat": -0.16501242912886055,
        "lon": -24.249960801161848,
        "alt_km": 36153.90705816103,
        "timestamp": "2025-12-11T08:58:26.782133+00:00",
        "meta_object_name": "XM-3 (RHYTHM)",
        "meta_object_id": "2005-008A",
        "meta_epoch": "2025-12-10T23:37:38.582976",
        "meta_mean_motion": 0.98953167,
        "meta_eccentricity": 0.0001457,
        "meta_inclination": 0.1703,
        "meta_ra_of_asc_node": 81.3447,
        "meta_arg_of_pericenter": 267.2649,
        "meta_mean_anomaly": 208.4123,
        "meta_ephemeris_type": 0,
        "meta_classification_type": "U",
        "meta_norad_cat_id": 28626,
        "meta_element_set_no": 999,
        "meta_rev_at_epoch": 4073,
        "meta_bstar": 0,
        "meta_mean_motion_dot": -2.03e-06,
        "meta_mean_motion_ddot": 0,
        "tle_line1": "1 28626U 05008A   25344.98447434 -.00000203  00000+0  00000+0 0  9992",
        "tle_line2": "2 28626   0.1703  81.3447 0001457 267.2649 208.4123  0.98953167 40739"
      },
      "geometry": {
        "type": "Point",
        "coordinates": [
          -24.249960801161848,
          -0.16501242912886055
        ]
      }
    },
    {
      "type": "Feature",
      "properties": {
        "norad_id": 28659,
        "name": "DIRECTV 8",
        "group": "intelsat",
        "lat": 0.021027257771762457,
        "lon": 95.89664074887692,
        "alt_km": 35798.92104896316,
        "timestamp": "2025-12-11T08:58:26.782147+00:00",
        "meta_object_name": "DIRECTV 8",
        "meta_object_id": "2005-019A",
        "meta_epoch": "2025-12-10T14:41:19.521600",
        "meta_mean_motion": 1.00272305,
        "meta_eccentricity": 0.00031388,
        "meta_inclination": 0.0102,
        "meta_ra_of_asc_node": 37.1466,
        "meta_arg_of_pericenter": 227.4425,
        "meta_mean_anomaly": 276.2856,
        "meta_ephemeris_type": 0,
        "meta_classification_type": "U",
        "meta_norad_cat_id": 28659,
        "meta_element_set_no": 999,
        "meta_rev_at_epoch": 7518,
        "meta_bstar": 0,
        "meta_mean_motion_dot": 5e-08,
        "meta_mean_motion_ddot": 0,
        "tle_line1": "1 28659U 05019A   25344.61203150  .00000005  00000+0  00000+0 0  9994",
        "tle_line2": "2 28659   0.0102  37.1466 0003138 227.4425 276.2856  1.00272305 75180"
      },
      "geometry": {
        "type": "Point",
        "coordinates": [
          95.89664074887692,
          0.021027257771762457
        ]
      }
    },
    {
      "type": "Feature",
      "properties": {
        "norad_id": 28702,
        "name": "GALAXY 28 (G-28)",
        "group": "intelsat",
        "lat": 1.9997472017113083,
        "lon": 126.20077668494322,
        "alt_km": 35794.51596081258,
        "timestamp": "2025-12-11T08:58:26.782160+00:00",
        "meta_object_name": "GALAXY 28 (G-28)",
        "meta_object_id": "2005-022A",
        "meta_epoch": "2025-12-10T19:58:09.141600",
        "meta_mean_motion": 1.00270813,
        "meta_eccentricity": 0.00027094,
        "meta_inclination": 2.8138,
        "meta_ra_of_asc_node": 81.3041,
        "meta_arg_of_pericenter": 181.9755,
        "meta_mean_anomaly": 27.3727,
        "meta_ephemeris_type": 0,
        "meta_classification_type": "U",
        "meta_norad_cat_id": 28702,
        "meta_element_set_no": 999,
        "meta_rev_at_epoch": 5008,
        "meta_bstar": 0,
        "meta_mean_motion_dot": -1.82e-06,
        "meta_mean_motion_ddot": 0,
        "tle_line1": "1 28702U 05022A   25344.83205025 -.00000182  00000+0  00000+0 0  9991",
        "tle_line2": "2 28702   2.8138  81.3041 0002709 181.9755  27.3727  1.00270813 50087"
      },
      "geometry": {
        "type": "Point",
        "coordinates": [
          126.20077668494322,
          1.9997472017113083
        ]
      }
    },
    {
      "type": "Feature",
      "properties": {
        "norad_id": 29236,
        "name": "GALAXY 16 (G-16)",
        "group": "intelsat",
        "lat": 0.01607772980283527,
        "lon": 115.91597551213324,
        "alt_km": 35794.81663065132,
        "timestamp": "2025-12-11T08:58:26.782172+00:00",
        "meta_object_name": "GALAXY 16 (G-16)",
        "meta_object_id": "2006-023A",
        "meta_epoch": "2025-12-11T05:00:38.584224",
        "meta_mean_motion": 1.00272313,
        "meta_eccentricity": 0.0002693,
        "meta_inclination": 0.0366,
        "meta_ra_of_asc_node": 150.4834,
        "meta_arg_of_pericenter": 106.5735,
        "meta_mean_anomaly": 159.2686,
        "meta_ephemeris_type": 0,
        "meta_classification_type": "U",
        "meta_norad_cat_id": 29236,
        "meta_element_set_no": 999,
        "meta_rev_at_epoch": 7108,
        "meta_bstar": 0,
        "meta_mean_motion_dot": -1.21e-06,
        "meta_mean_motion_ddot": 0,
        "tle_line1": "1 29236U 06023A   25345.20877991 -.00000121  00000+0  00000+0 0  9998",
        "tle_line2": "2 29236   0.0366 150.4834 0002693 106.5735 159.2686  1.00272313 71083"
      },
      "geometry": {
        "type": "Point",
        "coordinates": [
          115.91597551213324,
          0.01607772980283527
        ]
      }
    },
    {
      "type": "Feature",
      "properties": {
        "norad_id": 29494,
        "name": "DIRECTV 9S",
        "group": "intelsat",
        "lat": 0.9968172033674348,
        "lon": 113.69967008797585,
        "alt_km": 35797.11848665182,
        "timestamp": "2025-12-11T08:58:26.782184+00:00",
        "meta_object_name": "DIRECTV 9S",
        "meta_object_id": "2006-043A",
        "meta_epoch": "2025-12-11T05:00:38.584224",
        "meta_mean_motion": 1.00271766,
        "meta_eccentricity": 0.0003074,
        "meta_inclination": 1.9365,
        "meta_ra_of_asc_node": 83.2249,
        "meta_arg_of_pericenter": 179.5337,
        "meta_mean_anomaly": 151.3624,
        "meta_ephemeris_type": 0,
        "meta_classification_type": "U",
        "meta_norad_cat_id": 29494,
        "meta_element_set_no": 999,
        "meta_rev_at_epoch": 4949,
        "meta_bstar": 0,
        "meta_mean_motion_dot": -1.07e-06,
        "meta_mean_motion_ddot": 0,
        "tle_line1": "1 29494U 06043A   25345.20877991 -.00000107  00000+0  00000+0 0  9990",
        "tle_line2": "2 29494   1.9365  83.2249 0003074 179.5337 151.3624  1.00271766 49499"
      },
      "geometry": {
        "type": "Point",
        "coordinates": [
          113.69967008797585,
          0.9968172033674348
        ]
      }
    }
  ]
}